KUIPER-00176            
1 65788U 25217AC  25328.50002315 -.00078844  00000+0 -36026-2 0  9998
2 65788  51.8777 153.4294 0003584 256.0533 217.9668 15.20314855  5854
KUIPER-00101            
1 65947U 25228A   25328.50002315 -.00503455  00000+0 -26419-1 0  9992
2 65947  51.8893 109.7188 0004254 295.2902 234.6482 15.17647092  5113
KUIPER-00113            
1 65948U 25228B   25328.50002315 -.01124401  00000+0 -45162-1 0  9990
2 65948  51.8815 108.5463 0006532 286.9704  58.5472 15.27464016  3214
KUIPER-00117            
1 65949U 25228C   25328.50002315  .00004407  00000+0  20694-3 0  9996
2 65949  51.8838 109.0305 0007859 292.3629 166.7072 15.21596086  5780
KUIPER-00121            
1 65950U 25228D   25328.43318595  .00038813  00000+0  11219-2 0  9990
2 65950  51.8793 108.8583 0005416 304.4889  55.5585 15.35246103  7601
KUIPER-00122            
1 65951U 25228E   25328.50002315 -.00852358  00000+0 -54347-1 0  9997
2 65951  51.8877 110.7052 0005264 318.5730  96.9664 15.10867040  3997
KUIPER-00123            
1 65952U 25228F   25328.50002315 -.00023305  00000+0 -14273-2 0  9995
2 65952  51.8959 110.7209 0006338 305.7444  21.9022 15.09383907  4536
KUIPER-00124            
1 65953U 25228G   25328.44021296  .00046299  00000+0  13589-2 0  9992
2 65953  51.8791 108.9006 0004757 317.4968  42.5649 15.34688681  7609
